[{"OBJECT_NAME":"STARLINK-6220","OBJECT_ID":"2023-064AL","EPOCH":"2026-03-09T13:55:59.837088","MEAN_MOTION":14.98330554,"ECCENTRICITY":0.0003282,"INCLINATION":69.9998,"RA_OF_ASC_NODE":124.7071,"ARG_OF_PERICENTER":269.8057,"MEAN_ANOMALY":90.2726,"EPHEMERIS_TYPE":0,"CLASSIFICATION_TYPE":"U","NORAD_CAT_ID":56482,"ELEMENT_SET_NO":999,"REV_AT_EPOCH":15572,"BSTAR":-3.4061e-5,"MEAN_MOTION_DOT":-4.99e-6,"MEAN_MOTION_DDOT":0},{"OBJECT_NAME":"NOAA 16 DEB","OBJECT_ID":"2000-055PP","EPOCH":"2026-03-07T09:37:02.399808","MEAN_MOTION":14.94870962,"ECCENTRICITY":0.00127779,"INCLINATION":98.9453,"RA_OF_ASC_NODE":285.7448,"ARG_OF_PERICENTER":347.412,"MEAN_ANOMALY":12.6776,"EPHEMERIS_TYPE":0,"CLASSIFICATION_TYPE":"U","NORAD_CAT_ID":41709,"ELEMENT_SET_NO":999,"REV_AT_EPOCH":51965,"BSTAR":0.009194972,"MEAN_MOTION_DOT":0.00101727,"MEAN_MOTION_DDOT":0}]
